ORBCOMM FM24 [-]        
1 25478U 98053D   23271.35824108  .00001983  00000+0  74363-3 0  9993
2 25478  45.0101 357.2256 0002117 259.1013 100.9596 14.34678833307187
ORBCOMM FM25 [-]        
1 25479U 98053E   23271.60041389  .00001636  00000+0  62245-3 0  9995
2 25479  45.0093 354.3156 0003295 313.0705  46.9866 14.34665612307518
ORBCOMM FM26 [-]        
1 25480U 98053F   23271.32201364  .00001490  00000+0  57606-3 0  9990
2 25480  45.0091 348.9212 0004536 349.6469  10.4284 14.34249805307423
ORBCOMM FM27 [+]        
1 25481U 98053G   23271.37596937  .00001733  00000+0  65683-3 0  9993
2 25481  45.0075 355.6285 0002025 215.4177 144.6535 14.34635613307412
ORBCOMM FM28 [-]        
1 25482U 98053H   23271.43618709  .00001527  00000+0  57900-3 0  9997
2 25482  45.0069 294.6209 0003002 356.2156   3.8668 14.35134498308084
ORBCOMM FM30 [-]        
1 25980U 99065A   23271.86239135  .00001418  00000+0  54944-3 0  9997
2 25980  45.0316 171.6801 0005433 100.1838 259.9622 14.34375689244291
ORBCOMM FM31 [-]        
1 25981U 99065B   23271.83041335  .00001365  00000+0  53035-3 0  9999
2 25981  45.0228 165.7099 0002368 119.6385 240.4698 14.34411608243843
ORBCOMM FM32 [+]        
1 25982U 99065C   23271.85776883  .00001507  00000+0  59241-3 0  9998
2 25982  45.0157 177.7292 0004286 129.5780 230.5446 14.33354931244502
